<?xml version="1.0" encoding="UTF-8"?>
<kml xmlns="http://www.opengis.net/kml/2.2" xmlns:gx="http://www.google.com/kml/ext/2.2" xmlns:kml="http://www.opengis.net/kml/2.2" xmlns:atom="http://www.w3.org/2005/Atom">
<Document>
<name>data.kml</name>
<Folder>
<name>data</name>
<Placemark><name>202111171240</name><description>Epicenter Agency : AFAD
Depth : 18.29
Mw : 5
Md : null
Ms : null
Mb : null
Ml : null
</description><Point><coordinates>31.0316,40.844</coordinates></Point></Placemark><Placemark><name>202001111337</name><description>Epicenter Agency : DDA
Depth : 10.82
Mw : 4.7
Md : null
Ms : null
Mb : null
Ml : null
</description><Point><coordinates>28.2086,40.8646</coordinates></Point></Placemark><Placemark><name>201909261059</name><description>Epicenter Agency : DDA
Depth : 7.97
Mw : 5.8
Md : null
Ms : null
Mb : null
Ml : null
</description><Point><coordinates>28.214,40.8818</coordinates></Point></Placemark><Placemark><name>201906021308</name><description>Epicenter Agency : DDA
Depth : 6.29
Mw : 4.6
Md : null
Ms : null
Mb : null
Ml : null
</description><Point><coordinates>30.7611,40.745</coordinates></Point></Placemark><Placemark><name>201812200634</name><description>Epicenter Agency : DDA
Depth : 12.47
Mw : 4.5
Md : null
Ms : null
Mb : null
Ml : null
</description><Point><coordinates>28.9716,40.5938</coordinates></Point></Placemark><Placemark><name>201804072116</name><description>Epicenter Agency : DDA
Depth : 10.47
Mw : 4.7
Md : null
Ms : null
Mb : null
Ml : null
</description><Point><coordinates>31.6393,40.8526</coordinates></Point></Placemark><Placemark><name>201410221711</name><description>Epicenter Agency : AFAD
Depth : 7.68
Mw : 4.5
Md : null
Ms : null
Mb : null
Ml : null
</description><Point><coordinates>30.1001,40.4113</coordinates></Point></Placemark><Placemark><name>201311270413</name><description>Epicenter Agency : AFAD
Depth : 10.01
Mw : null
Md : null
Ms : null
Mb : null
Ml : 4.7
</description><Point><coordinates>27.9338,40.822</coordinates></Point></Placemark><Placemark><name>201308171816</name><description>Epicenter Agency : AFAD
Depth : 13.3
Mw : null
Md : null
Ms : null
Mb : null
Ml : 4.6
</description><Point><coordinates>29.13,40.3973</coordinates></Point></Placemark><Placemark><name>201206072054</name><description>Epicenter Agency : AFAD
Depth : 26.96
Mw : null
Md : null
Ms : null
Mb : null
Ml : 5.1
</description><Point><coordinates>27.9043,40.8628</coordinates></Point></Placemark><Placemark><name>201107251757</name><description>Epicenter Agency : AFAD
Depth : 6.97
Mw : null
Md : null
Ms : null
Mb : null
Ml : 5.1
</description><Point><coordinates>27.7498,40.8195</coordinates></Point></Placemark><Placemark><name>201010031749</name><description>Epicenter Agency : AADY
Depth : 7
Mw : null
Md : null
Ms : null
Mb : null
Ml : 4.5
</description><Point><coordinates>28.1925,40.817</coordinates></Point></Placemark><Placemark><name>201005151408</name><description>Epicenter Agency : AADY
Depth : 12.76
Mw : null
Md : null
Ms : null
Mb : null
Ml : 4.5
</description><Point><coordinates>30.1675,41.1073</coordinates></Point></Placemark><Placemark><name>200803121853</name><description>Epicenter Agency : AADY
Depth : 24
Mw : null
Md : 4.7
Ms : null
Mb : null
Ml : 5
</description><Point><coordinates>29.0158,40.6252</coordinates></Point></Placemark><Placemark><name>200612191915</name><description>Epicenter Agency : GDDA
Depth : 18.5
Mw : 4.9
Md : 4.2
Ms : null
Mb : 4.6
Ml : null
</description><Point><coordinates>28.32,40.34</coordinates></Point></Placemark><Placemark><name>200610241400</name><description>Epicenter Agency : GDDA
Depth : 7.9
Mw : 5.2
Md : 5.2
Ms : null
Mb : 4.7
Ml : 4.3
</description><Point><coordinates>28.9937,40.4221</coordinates></Point></Placemark><Placemark><name>200602080407</name><description>Epicenter Agency : GDDA
Depth : 6.8
Mw : 4.9
Md : 4.4
Ms : null
Mb : 4.6
Ml : null
</description><Point><coordinates>30.412,40.7082</coordinates></Point></Placemark><Placemark><name>200405312250</name><description>Epicenter Agency : ISC
Depth : 15
Mw : 4.7
Md : 3.6
Ms : 3.8
Mb : 3.8
Ml : 4
</description><Point><coordinates>30.5844,40.5744</coordinates></Point></Placemark><Placemark><name>200405160330</name><description>Epicenter Agency : ISC
Depth : 11
Mw : 4.6
Md : 4.2
Ms : 3.7
Mb : 4.4
Ml : 4.3
</description><Point><coordinates>29.3295,40.7529</coordinates></Point></Placemark><Placemark><name>200404191527</name><description>Epicenter Agency : ISC
Depth : 25
Mw : 4.1
Md : 4.3
Ms : 3
Mb : 3.7
Ml : 4.5
</description><Point><coordinates>27.6444,40.6599</coordinates></Point></Placemark><Placemark><name>200404132147</name><description>Epicenter Agency : ISC
Depth : 5
Mw : 4.4
Md : 4.6
Ms : 3.6
Mb : 4.2
Ml : 4.6
</description><Point><coordinates>31.6206,40.8115</coordinates></Point></Placemark><Placemark><name>200305210821</name><description>Epicenter Agency : ISC
Depth : 5
Mw : 4.4
Md : 4
Ms : 3.5
Mb : 4.2
Ml : 4.5
</description><Point><coordinates>30.9584,40.8731</coordinates></Point></Placemark><Placemark><name>200203230236</name><description>Epicenter Agency : ISC
Depth : 7
Mw : 4.4
Md : 4.7
Ms : 3.3
Mb : 4
Ml : 4.3
</description><Point><coordinates>27.83,40.863</coordinates></Point></Placemark><Placemark><name>200202280837</name><description>Epicenter Agency : ISC
Depth : 11.5
Mw : 4.5
Md : 4.3
Ms : 3.6
Mb : 4.1
Ml : null
</description><Point><coordinates>28.14,40.802</coordinates></Point></Placemark><Placemark><name>200108260041</name><description>Epicenter Agency : ISC
Depth : 8.8
Mw : 5.2
Md : 5.1
Ms : 4.4
Mb : 4.9
Ml : 5
</description><Point><coordinates>31.544,40.958</coordinates></Point></Placemark><Placemark><name>200008231341</name><description>Epicenter Agency : ISC
Depth : 10.5
Mw : 5.3
Md : 5.4
Ms : 4.9
Mb : 5.1
Ml : 5.2
</description><Point><coordinates>30.76,40.782</coordinates></Point></Placemark><Placemark><name>200007070015</name><description>Epicenter Agency : ISC
Depth : 10
Mw : 4.5
Md : 4.2
Ms : 3.7
Mb : 4.5
Ml : null
</description><Point><coordinates>29.285,40.858</coordinates></Point></Placemark><Placemark><name>200004021857</name><description>Epicenter Agency : ISC
Depth : 8.8
Mw : 4.5
Md : 4.5
Ms : 3.8
Mb : 4.5
Ml : 4.6
</description><Point><coordinates>30.294,40.861</coordinates></Point></Placemark><Placemark><name>200002140656</name><description>Epicenter Agency : ISC
Depth : 10
Mw : 5.3
Md : 5.1
Ms : 4.9
Mb : 4.8
Ml : 5
</description><Point><coordinates>31.738,41.036</coordinates></Point></Placemark><Placemark><name>200001201035</name><description>Epicenter Agency : ISC
Depth : 12.7
Mw : 4.9
Md : 4.4
Ms : null
Mb : 4.6
Ml : null
</description><Point><coordinates>31.319,40.818</coordinates></Point></Placemark><Placemark><name>199912131913</name><description>Epicenter Agency : ISC
Depth : 14.2
Mw : 4.7
Md : 4.5
Ms : 3.9
Mb : 4.3
Ml : null
</description><Point><coordinates>30.718,40.766</coordinates></Point></Placemark><Placemark><name>199911191959</name><description>Epicenter Agency : ISC
Depth : 5.3
Mw : 4.9
Md : 5
Ms : 4.4
Mb : 4.8
Ml : 4.8
</description><Point><coordinates>31.017,40.831</coordinates></Point></Placemark><Placemark><name>199911191028</name><description>Epicenter Agency : ISC
Depth : 11.8
Mw : 4.5
Md : 4.3
Ms : 3.5
Mb : 4.3
Ml : null
</description><Point><coordinates>30.99,40.854</coordinates></Point></Placemark><Placemark><name>199911170815</name><description>Epicenter Agency : ISC
Depth : 7
Mw : 5
Md : 5
Ms : 4.5
Mb : 4.7
Ml : 4.8
</description><Point><coordinates>31.493,40.832</coordinates></Point></Placemark><Placemark><name>199911161751</name><description>Epicenter Agency : ISC
Depth : 5
Mw : 5
Md : 4.8
Ms : 4.6
Mb : 5
Ml : 5.1
</description><Point><coordinates>31.594,40.731</coordinates></Point></Placemark><Placemark><name>199911130252</name><description>Epicenter Agency : ISC
Depth : 5
Mw : 5
Md : 4.7
Ms : null
Mb : null
Ml : null
</description><Point><coordinates>30.219,40.824</coordinates></Point></Placemark><Placemark><name>199911130054</name><description>Epicenter Agency : ISC
Depth : 5.2
Mw : 5
Md : 4.6
Ms : 4.5
Mb : 4.9
Ml : 4.8
</description><Point><coordinates>31.02,40.77</coordinates></Point></Placemark><Placemark><name>199911122249</name><description>Epicenter Agency : GDDA
Depth : 10
Mw : 4.6
Md : 4.2
Ms : null
Mb : null
Ml : null
</description><Point><coordinates>31.05,40.75</coordinates></Point></Placemark><Placemark><name>199911121824</name><description>Epicenter Agency : ISC
Depth : 10
Mw : 4.2
Md : 4.7
Ms : null
Mb : 4
Ml : null
</description><Point><coordinates>31.605,40.541</coordinates></Point></Placemark><Placemark><name>199911121814</name><description>Epicenter Agency : ISC
Depth : 10
Mw : 4.9
Md : 5
Ms : null
Mb : 4.6
Ml : null
</description><Point><coordinates>31.327,40.741</coordinates></Point></Placemark><Placemark><name>199911121804</name><description>Epicenter Agency : GDDA
Depth : 10
Mw : 5
Md : 4.7
Ms : null
Mb : null
Ml : null
</description><Point><coordinates>31.7,40.7</coordinates></Point></Placemark><Placemark><name>199911121804</name><description>Epicenter Agency : ISC
Depth : 33
Mw : 4.2
Md : 4.7
Ms : null
Mb : 4
Ml : null
</description><Point><coordinates>30.694,40.64</coordinates></Point></Placemark><Placemark><name>199911121757</name><description>Epicenter Agency : ISC
Depth : 10
Mw : 4.1
Md : 4.8
Ms : null
Mb : 3.9
Ml : 4.8
</description><Point><coordinates>31.647,40.859</coordinates></Point></Placemark><Placemark><name>199911121756</name><description>Epicenter Agency : GDDA
Depth : 9.6
Mw : 5
Md : 4.8
Ms : null
Mb : null
Ml : null
</description><Point><coordinates>31.25,40.87</coordinates></Point></Placemark><Placemark><name>199911121754</name><description>Epicenter Agency : ISC
Depth : 23.8
Mw : 4.2
Md : 4.7
Ms : null
Mb : 4
Ml : null
</description><Point><coordinates>31.371,40.615</coordinates></Point></Placemark><Placemark><name>199911121752</name><description>Epicenter Agency : ISC
Depth : 10
Mw : 4.2
Md : 4.8
Ms : null
Mb : 4
Ml : null
</description><Point><coordinates>31.148,40.878</coordinates></Point></Placemark><Placemark><name>199911121747</name><description>Epicenter Agency : GDDA
Depth : 20.1
Mw : 5
Md : 4.8
Ms : null
Mb : null
Ml : null
</description><Point><coordinates>30.88,40.87</coordinates></Point></Placemark><Placemark><name>199911121746</name><description>Epicenter Agency : ISC
Depth : 12.7
Mw : 4.8
Md : 4.8
Ms : null
Mb : 4.5
Ml : null
</description><Point><coordinates>30.965,40.78</coordinates></Point></Placemark><Placemark><name>199911121729</name><description>Epicenter Agency : ISC
Depth : 11
Mw : 5.3
Md : 5.2
Ms : null
Mb : 5
Ml : null
</description><Point><coordinates>31.467,40.703</coordinates></Point></Placemark><Placemark><name>199911121727</name><description>Epicenter Agency : ISK
Depth : 10
Mw : 5.4
Md : 5.2
Ms : null
Mb : null
Ml : null
</description><Point><coordinates>31.4,40.75</coordinates></Point></Placemark><Placemark><name>199911121726</name><description>Epicenter Agency : ISC
Depth : 9.7
Mw : 4.7
Md : 5.2
Ms : null
Mb : 4.4
Ml : null
</description><Point><coordinates>31.508,40.735</coordinates></Point></Placemark><Placemark><name>199911121723</name><description>Epicenter Agency : GDDA
Depth : 10
Mw : 5.3
Md : 5.1
Ms : null
Mb : null
Ml : null
</description><Point><coordinates>31.16,40.76</coordinates></Point></Placemark><Placemark><name>199911121722</name><description>Epicenter Agency : ISC
Depth : 18.8
Mw : 4.9
Md : null
Ms : null
Mb : 4.6
Ml : null
</description><Point><coordinates>31.089,40.783</coordinates></Point></Placemark><Placemark><name>199911121718</name><description>Epicenter Agency : ISC
Depth : 27.8
Mw : 5.5
Md : 5.4
Ms : null
Mb : 5.2
Ml : null
</description><Point><coordinates>31.084,40.752</coordinates></Point></Placemark><Placemark><name>199911121717</name><description>Epicenter Agency : ISC
Depth : 9.3
Mw : 5
Md : 5.2
Ms : null
Mb : 4.7
Ml : null
</description><Point><coordinates>31.007,40.825</coordinates></Point></Placemark><Placemark><name>199911121713</name><description>Epicenter Agency : ISC
Depth : 10
Mw : 4.6
Md : null
Ms : null
Mb : 4.3
Ml : null
</description><Point><coordinates>31.018,40.864</coordinates></Point></Placemark><Placemark><name>199911121709</name><description>Epicenter Agency : ISC
Depth : 10
Mw : 4.6
Md : null
Ms : null
Mb : 4.3
Ml : null
</description><Point><coordinates>31.628,40.777</coordinates></Point></Placemark><Placemark><name>199911121706</name><description>Epicenter Agency : ISC
Depth : 65.6
Mw : 4.7
Md : null
Ms : null
Mb : 4.4
Ml : null
</description><Point><coordinates>31.261,40.794</coordinates></Point></Placemark><Placemark><name>199911121657</name><description>Epicenter Agency : ISC
Depth : 10.4
Mw : 7.1
Md : 7.2
Ms : 7.4
Mb : 6.2
Ml : 6.6
</description><Point><coordinates>31.187,40.806</coordinates></Point></Placemark><Placemark><name>199911111441</name><description>Epicenter Agency : ISC
Depth : 7.5
Mw : 5.6
Md : 5.7
Ms : 5.5
Mb : 5.4
Ml : 5.2
</description><Point><coordinates>30.248,40.747</coordinates></Point></Placemark><Placemark><name>199911071654</name><description>Epicenter Agency : ISC
Depth : 7.4
Mw : 4.9
Md : 5
Ms : 4.3
Mb : 4.8
Ml : null
</description><Point><coordinates>30.717,40.697</coordinates></Point></Placemark><Placemark><name>199910202308</name><description>Epicenter Agency : ISC
Depth : 6.6
Mw : 5.1
Md : 4.4
Ms : 4.6
Mb : 4.7
Ml : 4.6
</description><Point><coordinates>29.027,40.831</coordinates></Point></Placemark><Placemark><name>199909290013</name><description>Epicenter Agency : ISC
Depth : 12.2
Mw : 5.2
Md : 4.9
Ms : 4.7
Mb : 4.9
Ml : null
</description><Point><coordinates>29.331,40.738</coordinates></Point></Placemark><Placemark><name>199909241344</name><description>Epicenter Agency : ISC
Depth : 6.6
Mw : 4.5
Md : 4.1
Ms : null
Mb : null
Ml : null
</description><Point><coordinates>30.225,40.753</coordinates></Point></Placemark><Placemark><name>199909202128</name><description>Epicenter Agency : ISC
Depth : 14.6
Mw : 5.2
Md : 5
Ms : 4.7
Mb : 4.7
Ml : null
</description><Point><coordinates>27.578,40.666</coordinates></Point></Placemark><Placemark><name>199909180048</name><description>Epicenter Agency : GDDA
Depth : 14.4
Mw : 4.8
Md : 4.6
Ms : null
Mb : 4.5
Ml : null
</description><Point><coordinates>29.12,40.6</coordinates></Point></Placemark><Placemark><name>199909171950</name><description>Epicenter Agency : GDDA
Depth : 17.4
Mw : 4.7
Md : 4.4
Ms : null
Mb : null
Ml : null
</description><Point><coordinates>30.09,40.77</coordinates></Point></Placemark><Placemark><name>199909131155</name><description>Epicenter Agency : ISC
Depth : 10.4
Mw : 5.8
Md : 5.7
Ms : 5.7
Mb : 5.6
Ml : null
</description><Point><coordinates>30.079,40.75</coordinates></Point></Placemark><Placemark><name>199909090132</name><description>Epicenter Agency : ISC
Depth : 8.5
Mw : 4
Md : 4.3
Ms : 3.2
Mb : 3.9
Ml : 5
</description><Point><coordinates>29.146,40.702</coordinates></Point></Placemark><Placemark><name>199909041031</name><description>Epicenter Agency : ISC
Depth : 10.4
Mw : 4.7
Md : 4.2
Ms : 3.9
Mb : 3.8
Ml : null
</description><Point><coordinates>29.935,40.7</coordinates></Point></Placemark><Placemark><name>199909011357</name><description>Epicenter Agency : ISC
Depth : 9.2
Mw : 4.6
Md : 4.2
Ms : null
Mb : null
Ml : null
</description><Point><coordinates>29.951,40.736</coordinates></Point></Placemark><Placemark><name>199908310833</name><description>Epicenter Agency : ISC
Depth : 5.9
Mw : 4.5
Md : 4.7
Ms : 3.9
Mb : 4.6
Ml : 4.5
</description><Point><coordinates>29.945,40.732</coordinates></Point></Placemark><Placemark><name>199908310810</name><description>Epicenter Agency : ISC
Depth : 4
Mw : 5.1
Md : 5.2
Ms : 4.8
Mb : 5.3
Ml : null
</description><Point><coordinates>29.935,40.756</coordinates></Point></Placemark><Placemark><name>199908291014</name><description>Epicenter Agency : GDDA
Depth : 7
Mw : 4.3
Md : 4.8
Ms : 3.4
Mb : 4.2
Ml : 4.3
</description><Point><coordinates>31.23,40.88</coordinates></Point></Placemark><Placemark><name>199908221430</name><description>Epicenter Agency : ISC
Depth : 13.9
Mw : 5.2
Md : 5
Ms : 4.8
Mb : 4.6
Ml : null
</description><Point><coordinates>30.704,40.685</coordinates></Point></Placemark><Placemark><name>199908201000</name><description>Epicenter Agency : ISC
Depth : 25.8
Mw : 5.1
Md : 4.4
Ms : 4.5
Mb : 4.3
Ml : null
</description><Point><coordinates>30.599,40.653</coordinates></Point></Placemark><Placemark><name>199908200934</name><description>Epicenter Agency : ISK
Depth : 17
Mw : 4.9
Md : 4.6
Ms : null
Mb : null
Ml : null
</description><Point><coordinates>29.18,40.62</coordinates></Point></Placemark><Placemark><name>199908200928</name><description>Epicenter Agency : ISC
Depth : 9.8
Mw : 4.8
Md : 4.6
Ms : 4
Mb : 4.5
Ml : 4.5
</description><Point><coordinates>29.132,40.618</coordinates></Point></Placemark><Placemark><name>199908191526</name><description>Epicenter Agency : ISC
Depth : 4
Mw : 4.3
Md : 4.5
Ms : null
Mb : 4.1
Ml : null
</description><Point><coordinates>29.098,40.619</coordinates></Point></Placemark><Placemark><name>199908191517</name><description>Epicenter Agency : ISC
Depth : 12
Mw : 5.1
Md : 5.1
Ms : 4.7
Mb : 4.9
Ml : null
</description><Point><coordinates>29.137,40.629</coordinates></Point></Placemark><Placemark><name>199908191416</name><description>Epicenter Agency : ISC
Depth : 3.1
Mw : 4.7
Md : 4.7
Ms : 3.9
Mb : 4.5
Ml : 4.5
</description><Point><coordinates>29.149,40.601</coordinates></Point></Placemark><Placemark><name>199908190152</name><description>Epicenter Agency : ISC
Depth : 28
Mw : 4.7
Md : null
Ms : null
Mb : 4.4
Ml : null
</description><Point><coordinates>31.033,40.767</coordinates></Point></Placemark><Placemark><name>199908180045</name><description>Epicenter Agency : ISC
Depth : 4.2
Mw : 4.5
Md : 4.1
Ms : null
Mb : null
Ml : null
</description><Point><coordinates>29.032,40.783</coordinates></Point></Placemark><Placemark><name>199908170554</name><description>Epicenter Agency : ISC
Depth : 10
Mw : 4.7
Md : 3.5
Ms : 3.8
Mb : 3.7
Ml : null
</description><Point><coordinates>29.01,40.745</coordinates></Point></Placemark><Placemark><name>199908170510</name><description>Epicenter Agency : ISC
Depth : 11
Mw : 4.9
Md : 4.6
Ms : 4.3
Mb : 4.7
Ml : null
</description><Point><coordinates>30.196,40.752</coordinates></Point></Placemark><Placemark><name>199908170439</name><description>Epicenter Agency : ISC
Depth : 14.4
Mw : 4.6
Md : null
Ms : null
Mb : 4.3
Ml : null
</description><Point><coordinates>30.261,40.752</coordinates></Point></Placemark><Placemark><name>199908170420</name><description>Epicenter Agency : ISC
Depth : 12.6
Mw : 5.1
Md : 4.4
Ms : 4.5
Mb : 4.6
Ml : null
</description><Point><coordinates>30.409,40.689</coordinates></Point></Placemark><Placemark><name>199908170414</name><description>Epicenter Agency : ISC
Depth : 10
Mw : 4.6
Md : 4.2
Ms : null
Mb : 4.3
Ml : null
</description><Point><coordinates>29.154,40.755</coordinates></Point></Placemark><Placemark><name>199908170314</name><description>Epicenter Agency : ISC
Depth : 20.8
Mw : 5.2
Md : 4.9
Ms : 4.8
Mb : 4.9
Ml : null
</description><Point><coordinates>30.666,40.644</coordinates></Point></Placemark><Placemark><name>199908170250</name><description>Epicenter Agency : ISC
Depth : 11.3
Mw : 5.1
Md : 4.2
Ms : 4.6
Mb : 4.9
Ml : null
</description><Point><coordinates>30.064,40.783</coordinates></Point></Placemark><Placemark><name>199908170242</name><description>Epicenter Agency : ISC
Depth : 1.2
Mw : 5.2
Md : 4.6
Ms : 4.8
Mb : 4.9
Ml : null
</description><Point><coordinates>30.625,40.635</coordinates></Point></Placemark><Placemark><name>199908170133</name><description>Epicenter Agency : ISC
Depth : 7.4
Mw : 5.4
Md : null
Ms : 5.1
Mb : 4.7
Ml : null
</description><Point><coordinates>29.108,40.682</coordinates></Point></Placemark><Placemark><name>199908170131</name><description>Epicenter Agency : ISC
Depth : 1.2
Mw : 4.6
Md : null
Ms : null
Mb : 4.3
Ml : null
</description><Point><coordinates>29.027,40.714</coordinates></Point></Placemark><Placemark><name>199908170107</name><description>Epicenter Agency : ISC
Depth : 22
Mw : 4.9
Md : null
Ms : null
Mb : 4.6
Ml : null
</description><Point><coordinates>29.948,40.761</coordinates></Point></Placemark><Placemark><name>199908170016</name><description>Epicenter Agency : ANSS
Depth : 10
Mw : 5.3
Md : null
Ms : null
Mb : 5
Ml : null
</description><Point><coordinates>29.97,40.741</coordinates></Point></Placemark><Placemark><name>199908170015</name><description>Epicenter Agency : ANSS
Depth : 10
Mw : 5.2
Md : null
Ms : null
Mb : 4.9
Ml : null
</description><Point><coordinates>30.751,40.648</coordinates></Point></Placemark><Placemark><name>199908170001</name><description>Epicenter Agency : ISC
Depth : 17
Mw : 7.6
Md : 7.4
Ms : 7.7
Mb : 6.1
Ml : null
</description><Point><coordinates>29.955,40.756</coordinates></Point></Placemark></Folder>
</Document>
</kml>
